{"fetched_at":"2026-07-23T17:55:10.095Z","source":"https://celestrak.org/NORAD/elements/gp.php?GROUP=planet&FORMAT=JSON","constellation":"superdove","records":[{"OBJECT_NAME":"FLOCK 4BE-17","OBJECT_ID":"2024-149AA","EPOCH":"2026-07-23T05:04:24.407040","CLASSIFICATION_TYPE":"U","MEAN_MOTION":15.40764656,"ECCENTRICITY":0.00047203,"INCLINATION":97.3762,"RA_OF_ASC_NODE":287.8877,"ARG_OF_PERICENTER":126.8308,"MEAN_ANOMALY":233.3372,"EPHEMERIS_TYPE":0,"NORAD_CAT_ID":60492,"ELEMENT_SET_NO":999,"REV_AT_EPOCH":10780,"BSTAR":0.00042312886,"MEAN_MOTION_DOT":0.0001725,"MEAN_MOTION_DDOT":0},{"OBJECT_NAME":"FLOCK 4BE-22","OBJECT_ID":"2024-149AC","EPOCH":"2026-07-23T05:23:47.359680","CLASSIFICATION_TYPE":"U","MEAN_MOTION":15.42290731,"ECCENTRICITY":0.00051718,"INCLINATION":97.3723,"RA_OF_ASC_NODE":288.1526,"ARG_OF_PERICENTER":131.8755,"MEAN_ANOMALY":228.2934,"EPHEMERIS_TYPE":0,"NORAD_CAT_ID":60494,"ELEMENT_SET_NO":999,"REV_AT_EPOCH":10785,"BSTAR":0.00058427658,"MEAN_MOTION_DOT":0.0002512,"MEAN_MOTION_DDOT":0},{"OBJECT_NAME":"FLOCK 4BE-34","OBJECT_ID":"2024-149AD","EPOCH":"2026-07-23T04:16:15.651552","CLASSIFICATION_TYPE":"U","MEAN_MOTION":15.42137182,"ECCENTRICITY":0.00053938,"INCLINATION":97.3766,"RA_OF_ASC_NODE":288.9487,"ARG_OF_PERICENTER":139.8061,"MEAN_ANOMALY":220.3586,"EPHEMERIS_TYPE":0,"NORAD_CAT_ID":60495,"ELEMENT_SET_NO":999,"REV_AT_EPOCH":10787,"BSTAR":0.00039345078,"MEAN_MOTION_DOT":0.00016784,"MEAN_MOTION_DDOT":0},{"OBJECT_NAME":"FLOCK 4BE-32","OBJECT_ID":"2024-149AF","EPOCH":"2026-07-23T04:27:57.646368","CLASSIFICATION_TYPE":"U","MEAN_MOTION":15.433018,"ECCENTRICITY":0.0005353,"INCLINATION":97.3709,"RA_OF_ASC_NODE":288.53,"ARG_OF_PERICENTER":136.8434,"MEAN_ANOMALY":223.3234,"EPHEMERIS_TYPE":0,"NORAD_CAT_ID":60497,"ELEMENT_SET_NO":999,"REV_AT_EPOCH":10788,"BSTAR":0.00043001312,"MEAN_MOTION_DOT":0.00019087,"MEAN_MOTION_DDOT":0},{"OBJECT_NAME":"FLOCK 4BE-11","OBJECT_ID":"2024-149AK","EPOCH":"2026-07-23T05:26:37.089024","CLASSIFICATION_TYPE":"U","MEAN_MOTION":15.44098653,"ECCENTRICITY":0.00053742,"INCLINATION":97.3687,"RA_OF_ASC_NODE":288.8351,"ARG_OF_PERICENTER":136.958,"MEAN_ANOMALY":223.209,"EPHEMERIS_TYPE":0,"NORAD_CAT_ID":60501,"ELEMENT_SET_NO":999,"REV_AT_EPOCH":10791,"BSTAR":0.00043159992,"MEAN_MOTION_DOT":0.00019682,"MEAN_MOTION_DDOT":0},{"OBJECT_NAME":"FLOCK 4BE-24","OBJECT_ID":"2024-149AP","EPOCH":"2026-07-23T05:01:22.611072","CLASSIFICATION_TYPE":"U","MEAN_MOTION":15.44349029,"ECCENTRICITY":0.00055598,"INCLINATION":97.3699,"RA_OF_ASC_NODE":289.0906,"ARG_OF_PERICENTER":146.9804,"MEAN_ANOMALY":213.1793,"EPHEMERIS_TYPE":0,"NORAD_CAT_ID":60505,"ELEMENT_SET_NO":999,"REV_AT_EPOCH":10792,"BSTAR":0.00048279754,"MEAN_MOTION_DOT":0.00022222,"MEAN_MOTION_DDOT":0},{"OBJECT_NAME":"FLOCK 4BE-29","OBJECT_ID":"2024-149AT","EPOCH":"2026-07-23T04:37:09.721632","CLASSIFICATION_TYPE":"U","MEAN_MOTION":15.46012232,"ECCENTRICITY":0.00041169,"INCLINATION":97.3794,"RA_OF_ASC_NODE":290.6454,"ARG_OF_PERICENTER":157.3326,"MEAN_ANOMALY":202.8106,"EPHEMERIS_TYPE":0,"NORAD_CAT_ID":60509,"ELEMENT_SET_NO":999,"REV_AT_EPOCH":10797,"BSTAR":0.0010109856,"MEAN_MOTION_DOT":0.00049504,"MEAN_MOTION_DDOT":0},{"OBJECT_NAME":"FLOCK 4BE-2","OBJECT_ID":"2024-149AV","EPOCH":"2026-07-22T04:50:53.001312","CLASSIFICATION_TYPE":"U","MEAN_MOTION":15.56583896,"ECCENTRICITY":0.00053744,"INCLINATION":97.3818,"RA_OF_ASC_NODE":291.5976,"ARG_OF_PERICENTER":154.883,"MEAN_ANOMALY":205.2687,"EPHEMERIS_TYPE":0,"NORAD_CAT_ID":60511,"ELEMENT_SET_NO":999,"REV_AT_EPOCH":10794,"BSTAR":0.0010795358,"MEAN_MOTION_DOT":0.00077269,"MEAN_MOTION_DDOT":0},{"OBJECT_NAME":"FLOCK 4BE-13","OBJECT_ID":"2024-149AW","EPOCH":"2026-07-23T03:55:10.775424","CLASSIFICATION_TYPE":"U","MEAN_MOTION":15.42782938,"ECCENTRICITY":0.00054931,"INCLINATION":97.371,"RA_OF_ASC_NODE":288.9698,"ARG_OF_PERICENTER":132.9968,"MEAN_ANOMALY":227.1741,"EPHEMERIS_TYPE":0,"NORAD_CAT_ID":60512,"ELEMENT_SET_NO":999,"REV_AT_EPOCH":10791,"BSTAR":0.00034877542,"MEAN_MOTION_DOT":0.0001519,"MEAN_MOTION_DDOT":0},{"OBJECT_NAME":"FLOCK 4BE-27","OBJECT_ID":"2024-149AX","EPOCH":"2026-07-23T04:25:43.949280","CLASSIFICATION_TYPE":"U","MEAN_MOTION":15.35024754,"ECCENTRICITY":0.0004716,"INCLINATION":97.3815,"RA_OF_ASC_NODE":286.0653,"ARG_OF_PERICENTER":157.3006,"MEAN_ANOMALY":202.8447,"EPHEMERIS_TYPE":0,"NORAD_CAT_ID":60513,"ELEMENT_SET_NO":999,"REV_AT_EPOCH":10766,"BSTAR":0.00029375329,"MEAN_MOTION_DOT":0.00009907,"MEAN_MOTION_DDOT":0},{"OBJECT_NAME":"FLOCK 4BE-9","OBJECT_ID":"2024-149AY","EPOCH":"2026-07-23T04:28:46.397568","CLASSIFICATION_TYPE":"U","MEAN_MOTION":15.41818969,"ECCENTRICITY":0.0004219,"INCLINATION":97.3782,"RA_OF_ASC_NODE":288.8315,"ARG_OF_PERICENTER":150.1621,"MEAN_ANOMALY":209.9868,"EPHEMERIS_TYPE":0,"NORAD_CAT_ID":60514,"ELEMENT_SET_NO":999,"REV_AT_EPOCH":10786,"BSTAR":0.00043122021,"MEAN_MOTION_DOT":0.00018209,"MEAN_MOTION_DDOT":0},{"OBJECT_NAME":"FLOCK 4BE-6","OBJECT_ID":"2024-149BA","EPOCH":"2026-07-23T04:19:09.646464","CLASSIFICATION_TYPE":"U","MEAN_MOTION":15.40491375,"ECCENTRICITY":0.00049188,"INCLINATION":97.3776,"RA_OF_ASC_NODE":288.1129,"ARG_OF_PERICENTER":150.4641,"MEAN_ANOMALY":209.6884,"EPHEMERIS_TYPE":0,"NORAD_CAT_ID":60516,"ELEMENT_SET_NO":999,"REV_AT_EPOCH":10781,"BSTAR":0.00039899749,"MEAN_MOTION_DOT":0.00016114,"MEAN_MOTION_DDOT":0},{"OBJECT_NAME":"FLOCK 4BE-14","OBJECT_ID":"2024-149BB","EPOCH":"2026-07-23T04:39:01.677888","CLASSIFICATION_TYPE":"U","MEAN_MOTION":15.42062963,"ECCENTRICITY":0.00058961,"INCLINATION":97.3682,"RA_OF_ASC_NODE":288.2986,"ARG_OF_PERICENTER":152.5483,"MEAN_ANOMALY":207.6076,"EPHEMERIS_TYPE":0,"NORAD_CAT_ID":60517,"ELEMENT_SET_NO":999,"REV_AT_EPOCH":10787,"BSTAR":0.00045530687,"MEAN_MOTION_DOT":0.00019396,"MEAN_MOTION_DDOT":0},{"OBJECT_NAME":"FLOCK 4BE-1","OBJECT_ID":"2024-149BC","EPOCH":"2026-07-23T04:07:00.487488","CLASSIFICATION_TYPE":"U","MEAN_MOTION":15.43728639,"ECCENTRICITY":0.00055687,"INCLINATION":97.3765,"RA_OF_ASC_NODE":289.6846,"ARG_OF_PERICENTER":152.3818,"MEAN_ANOMALY":207.7727,"EPHEMERIS_TYPE":0,"NORAD_CAT_ID":60518,"ELEMENT_SET_NO":999,"REV_AT_EPOCH":10792,"BSTAR":0.00045281483,"MEAN_MOTION_DOT":0.00020399,"MEAN_MOTION_DDOT":0},{"OBJECT_NAME":"FLOCK 4BE-28","OBJECT_ID":"2024-149BD","EPOCH":"2026-07-23T04:35:53.523744","CLASSIFICATION_TYPE":"U","MEAN_MOTION":15.46827828,"ECCENTRICITY":0.00055756,"INCLINATION":97.3734,"RA_OF_ASC_NODE":290.5527,"ARG_OF_PERICENTER":152.9278,"MEAN_ANOMALY":207.2264,"EPHEMERIS_TYPE":0,"NORAD_CAT_ID":60519,"ELEMENT_SET_NO":999,"REV_AT_EPOCH":10800,"BSTAR":0.00097516546,"MEAN_MOTION_DOT":0.00049112,"MEAN_MOTION_DDOT":0},{"OBJECT_NAME":"FLOCK 4BE-5","OBJECT_ID":"2024-149CV","EPOCH":"2026-07-23T04:50:02.408064","CLASSIFICATION_TYPE":"U","MEAN_MOTION":15.41228821,"ECCENTRICITY":0.00046007,"INCLINATION":97.3834,"RA_OF_ASC_NODE":288.5706,"ARG_OF_PERICENTER":149.4959,"MEAN_ANOMALY":210.6556,"EPHEMERIS_TYPE":0,"NORAD_CAT_ID":60559,"ELEMENT_SET_NO":999,"REV_AT_EPOCH":10782,"BSTAR":0.00040664392,"MEAN_MOTION_DOT":0.0001683,"MEAN_MOTION_DDOT":0}]}
